OBJECT_NAME,OBJECT_ID,EPOCH,MEAN_MOTION,ECCENTRICITY,INCLINATION,RA_OF_ASC_NODE,ARG_OF_PERICENTER,MEAN_ANOMALY,EPHEMERIS_TYPE,CLASSIFICATION_TYPE,NORAD_CAT_ID,ELEMENT_SET_NO,REV_AT_EPOCH,BSTAR,MEAN_MOTION_DOT,MEAN_MOTION_DDOT
DTC TEST OBJECT B,2026-128B,2026-06-27T09:02:13.824960,15.56860342,.0009934,55.0021,257.9040,325.3113,34.7274,0,U,69473,999,280,.3356545E-3,.24134E-3,0
TJS-25,2026-129A,2026-07-08T14:15:00.825120,1.00266749,.00030567,5.9612,330.3021,282.2663,7.9144,0,U,69474,999,27,0,-.355E-5,0
STARLINK-37816,2026-131A,2026-07-08T12:00:02.000160,15.68499017,.0001864,97.2844,210.9900,95.7756,92.2338,0,U,69478,999,543,-.24209124E-1,-.2399456E-1,0
STARLINK-37878,2026-131B,2026-07-08T12:00:02.000160,15.74468550,.00016537,97.2844,210.9927,106.6287,86.7473,0,U,69479,999,429,-.2043524E-1,-.2521628E-1,0
STARLINK-37817,2026-131C,2026-07-07T00:00:28.443744,15.80951429,.00010584,97.2843,209.4321,136.5615,223.5737,0,U,69480,999,529,.16094205E-2,.321772E-2,0
STARLINK-37727,2026-131D,2026-07-08T12:00:02.000160,15.68135015,.00017941,97.2847,210.9947,103.3973,95.4278,0,U,69481,999,543,-.25176131E-1,-.2450826E-1,0
STARLINK-37814,2026-131E,2026-07-08T12:00:02.000160,15.74220816,.00015721,97.2841,211.0129,98.9733,141.4484,0,U,69482,999,543,-.18468432E-1,-.2291761E-1,0
STARLINK-37869,2026-131F,2026-07-08T12:00:02.000160,15.71018825,.00017118,97.2845,211.0089,103.6002,126.2796,0,U,69483,999,543,-.23095148E-1,-.2524181E-1,0
STARLINK-37873,2026-131G,2026-07-08T12:00:02.000160,15.72180576,.00018767,97.2844,211.0140,104.7078,136.1180,0,U,69484,999,543,-.21114209E-1,-.2384354E-1,0
STARLINK-37892,2026-131H,2026-07-08T12:00:02.000160,15.75055473,.00015496,97.2843,211.0210,98.3027,160.8109,0,U,69485,999,543,-.19614545E-1,-.2489133E-1,0
STARLINK-37893,2026-131J,2026-07-06T13:15:54.591552,15.80806533,.00013796,97.2853,208.9693,94.8147,265.3279,0,U,69486,999,522,.93923771E-3,.183522E-2,0
STARLINK-37842,2026-131K,2026-07-08T12:00:02.000160,15.69473011,.00016599,97.2848,211.0136,88.3803,148.3783,0,U,69487,999,543,-.19313435E-1,-.1998302E-1,0
STARLINK-37449,2026-131L,2026-07-08T12:00:02.000160,15.74834494,.00013266,97.2842,211.0262,100.7420,170.7503,0,U,69488,999,552,-.15136941E-1,-.1931593E-1,0
STARLINK-37831,2026-131M,2026-07-08T12:00:02.000160,15.68257317,.00016833,97.2846,211.0041,103.6046,116.3404,0,U,69489,999,407,-.25804842E-1,-.2515099E-1,0
STARLINK-37879,2026-131N,2026-07-08T12:00:02.000160,15.72112702,.00014361,97.2844,211.0180,98.9870,153.2859,0,U,69490,999,543,-.14995358E-1,-.1729308E-1,0
STARLINK-37856,2026-131P,2026-07-07T19:46:22.306656,15.80082279,.00173138,97.2869,210.2974,301.6612,58.2966,0,U,69491,999,542,.11592783E-2,.222266E-2,0
STARLINK-37568,2026-131Q,2026-07-08T12:00:02.000160,15.69552855,.00015566,97.2846,211.0210,109.0553,147.7624,0,U,69492,999,552,-.23507433E-1,-.2429303E-1,0
STARLINK-37855,2026-131R,2026-07-08T07:50:35.500992,15.80982862,.00031135,97.2844,210.8414,120.2922,239.8654,0,U,69493,999,550,.16401996E-2,.32868E-2,0
STARLINK-37854,2026-131S,2026-07-08T12:00:02.000160,15.76653544,.00016558,97.2843,211.0167,99.6989,149.5267,0,U,69494,999,549,-.18374941E-1,-.2500683E-1,0
STARLINK-37789,2026-131T,2026-07-08T12:00:02.000160,15.71511924,.00011873,97.2849,211.0309,110.5969,172.9848,0,U,69495,999,551,-.20511794E-1,-.2268976E-1,0
STARLINK-37839,2026-131U,2026-07-08T12:00:02.000160,15.73301329,.00016473,97.2844,211.0186,101.2290,152.3223,0,U,69496,999,549,-.20041925E-1,-.2375917E-1,0
STARLINK-37798,2026-131V,2026-07-08T12:00:02.000160,15.71770813,.00014401,97.2846,211.0340,105.8851,183.4738,0,U,69497,999,549,-.21092337E-1,-.2346412E-1,0
STARLINK-37853,2026-131W,2026-07-08T10:34:30.984960,15.79774922,.00018071,97.2844,210.9936,348.7047,11.4180,0,U,69498,999,426,-.23641618E-2,-.412277E-2,0
STARLINK-37849,2026-131X,2026-07-08T12:00:02.000160,15.68512688,.00016016,97.2847,211.0308,111.9560,172.0204,0,U,69499,999,551,-.25141094E-1,-.248115E-1,0
STARLINK-37835,2026-131Y,2026-07-08T12:00:02.000160,15.69127498,.00016392,97.2847,211.0294,109.3356,170.0357,0,U,69500,999,440,-.23545436E-1,-.2344427E-1,0
STARLINK-37843,2026-131Z,2026-07-08T12:00:02.000160,15.67904798,.00015109,97.2846,211.0270,110.0385,163.2381,0,U,69501,999,549,-.25079969E-1,-.2422185E-1,0
STARS-X,2026-132A,2026-07-08T10:45:35.919360,14.99095047,.00139506,97.6882,252.8415,189.2945,170.8022,0,U,69502,999,396,.11200811E-3,.1303E-4,0
PETREL,2026-132B,2026-07-08T10:43:24.777120,14.99174365,.00138278,97.6911,252.8536,191.2398,168.8518,0,U,69503,999,396,.91258836E-4,.1053E-4,0
BRO-22,2026-132C,2026-07-08T10:27:39.180960,14.99794108,.00158358,97.6834,252.8439,205.4401,154.6044,0,U,69504,999,396,.73461876E-4,.851E-5,0
HORN-L,2026-132D,2026-07-08T09:54:53.329536,15.10264936,.00246008,97.6856,253.0174,230.4733,129.4322,0,U,69505,999,397,.13893216E-3,.2222E-4,0
