DTC TEST OBJECT B       
1 69473U 26128B   26178.37654890  .00024134  00000+0  33565-3 0  9992
2 69473  55.0021 257.9040 0009934 325.3113  34.7274 15.56860342  2801
TJS-25                  
1 69474U 26129A   26189.59375955 -.00000355  00000+0  00000+0 0  9996
2 69474   5.9612 330.3021 0003056 282.2663   7.9144  1.00266749   279
STARLINK-37816          
1 69478U 26131A   26189.50002315 -.02399456  00000+0 -24209-1 0  9996
2 69478  97.2844 210.9900 0001864  95.7756  92.2338 15.68499017  5438
STARLINK-37878          
1 69479U 26131B   26189.50002315 -.02521628  00000+0 -20435-1 0  9992
2 69479  97.2844 210.9927 0001653 106.6287  86.7473 15.74468550  4291
STARLINK-37817          
1 69480U 26131C   26188.00032921  .00321772  00000+0  16094-2 0  9995
2 69480  97.2843 209.4321 0001058 136.5615 223.5737 15.80951429  5293
STARLINK-37727          
1 69481U 26131D   26189.50002315 -.02450826  00000+0 -25176-1 0  9993
2 69481  97.2847 210.9947 0001794 103.3973  95.4278 15.68135015  5438
STARLINK-37814          
1 69482U 26131E   26189.50002315 -.02291761  00000+0 -18468-1 0  9991
2 69482  97.2841 211.0129 0001572  98.9733 141.4484 15.74220816  5436
STARLINK-37869          
1 69483U 26131F   26189.50002315 -.02524181  00000+0 -23095-1 0  9999
2 69483  97.2845 211.0089 0001711 103.6002 126.2796 15.71018825  5433
STARLINK-37873          
1 69484U 26131G   26189.50002315 -.02384354  00000+0 -21114-1 0  9996
2 69484  97.2844 211.0140 0001876 104.7078 136.1180 15.72180576  5439
STARLINK-37892          
1 69485U 26131H   26189.50002315 -.02489133  00000+0 -19615-1 0  9991
2 69485  97.2843 211.0210 0001549  98.3027 160.8109 15.75055473  5431
STARLINK-37893          
1 69486U 26131J   26187.55271518  .00183522  00000+0  93924-3 0  9994
2 69486  97.2853 208.9693 0001379  94.8147 265.3279 15.80806533  5221
STARLINK-37842          
1 69487U 26131K   26189.50002315 -.01998302  00000+0 -19313-1 0  9990
2 69487  97.2848 211.0136 0001659  88.3803 148.3783 15.69473011  5432
STARLINK-37449          
1 69488U 26131L   26189.50002315 -.01931593  00000+0 -15137-1 0  9990
2 69488  97.2842 211.0262 0001326 100.7420 170.7503 15.74834494  5523
STARLINK-37831          
1 69489U 26131M   26189.50002315 -.02515099  00000+0 -25805-1 0  9994
2 69489  97.2846 211.0041 0001683 103.6046 116.3404 15.68257317  4076
STARLINK-37879          
1 69490U 26131N   26189.50002315 -.01729308  00000+0 -14995-1 0  9993
2 69490  97.2844 211.0180 0001436  98.9870 153.2859 15.72112702  5435
STARLINK-37856          
1 69491U 26131P   26188.82386929  .00222266  00000+0  11593-2 0  9994
2 69491  97.2869 210.2974 0017313 301.6612  58.2966 15.80082279  5420
STARLINK-37568          
1 69492U 26131Q   26189.50002315 -.02429303  00000+0 -23507-1 0  9997
2 69492  97.2846 211.0210 0001556 109.0553 147.7624 15.69552855  5529
STARLINK-37855          
1 69493U 26131R   26189.32679978  .00328680  00000+0  16402-2 0  9992
2 69493  97.2844 210.8414 0003113 120.2922 239.8654 15.80982862  5509
STARLINK-37854          
1 69494U 26131S   26189.50002315 -.02500683  00000+0 -18375-1 0  9997
2 69494  97.2843 211.0167 0001655  99.6989 149.5267 15.76653544  5490
STARLINK-37789          
1 69495U 26131T   26189.50002315 -.02268976  00000+0 -20512-1 0  9990
2 69495  97.2849 211.0309 0001187 110.5969 172.9848 15.71511924  5514
STARLINK-37839          
1 69496U 26131U   26189.50002315 -.02375917  00000+0 -20042-1 0  9993
2 69496  97.2844 211.0186 0001647 101.2290 152.3223 15.73301329  5492
STARLINK-37798          
1 69497U 26131V   26189.50002315 -.02346412  00000+0 -21092-1 0  9998
2 69497  97.2846 211.0340 0001440 105.8851 183.4738 15.71770813  5493
STARLINK-37853          
1 69498U 26131W   26189.44063640 -.00412277  00000+0 -23642-2 0  9995
2 69498  97.2844 210.9936 0001807 348.7047  11.4180 15.79774922  4261
STARLINK-37849          
1 69499U 26131X   26189.50002315 -.02481150  00000+0 -25141-1 0  9998
2 69499  97.2847 211.0308 0001601 111.9560 172.0204 15.68512688  5519
STARLINK-37835          
1 69500U 26131Y   26189.50002315 -.02344427  00000+0 -23545-1 0  9992
2 69500  97.2847 211.0294 0001639 109.3356 170.0357 15.69127498  4407
STARLINK-37843          
1 69501U 26131Z   26189.50002315 -.02422185  00000+0 -25080-1 0  9997
2 69501  97.2846 211.0270 0001510 110.0385 163.2381 15.67904798  5495
STARS-X                 
1 69502U 26132A   26189.44833240  .00001303  00000+0  11201-3 0  9994
2 69502  97.6882 252.8415 0013950 189.2945 170.8022 14.99095047  3963
PETREL                  
1 69503U 26132B   26189.44681455  .00001053  00000+0  91259-4 0  9998
2 69503  97.6911 252.8536 0013827 191.2398 168.8518 14.99174365  3967
BRO-22                  
1 69504U 26132C   26189.43587015  .00000851  00000+0  73462-4 0  9996
2 69504  97.6834 252.8439 0015835 205.4401 154.6044 14.99794108  3968
HORN-L                  
1 69505U 26132D   26189.41311724  .00002222  00000+0  13893-3 0  9992
2 69505  97.6856 253.0174 0024600 230.4733 129.4322 15.10264936  3973
